{"type": "FeatureCollection", "features": [ {"type": "Feature", "properties": {"norad_id": 66799, "name": "STARLINK-36044", "group": "last-30-days", "lat": -2.5906136448806367, "lon": 8.836737071491147, "alt_km": 414.7362826784365, "timestamp": "2025-12-23T16:57:11.061732+00:00", "meta": {"OBJECT_NAME": "STARLINK-36044", "OBJECT_ID": "2025-278J", "EPOCH": "2025-12-23T06:00:00.999648", "MEAN_MOTION": 15.50549491, "ECCENTRICITY": 0.00017253, "INCLINATION": 42.9997, "RA_OF_ASC_NODE": 188.7236, "ARG_OF_PERICENTER": 249.0138, "MEAN_ANOMALY": 264.2227, "EPHEMERIS_TYPE": 0, "CLASSIFICATION_TYPE": "U", "NORAD_CAT_ID": 66799, "ELEMENT_SET_NO": 999, "REV_AT_EPOCH": 464, "BSTAR": 0.00037217812, "MEAN_MOTION_DOT": 0.00021529, "MEAN_MOTION_DDOT": 0}, "tle": {"line1": "1 66799U 25278J   25357.25001157  .00021529  00000+0  37218-3 0  9996", "line2": "2 66799  42.9997 188.7236 0001725 249.0138 264.2227 15.50549491  4648"}}, "geometry": {"type": "Point", "coordinates": [8.836737071491147, -2.5906136448806367]}}, {"type": "Feature", "properties": {"norad_id": 66800, "name": "STARLINK-35996", "group": "last-30-days", "lat": -5.199770335863901, "lon": 11.648530419331605, "alt_km": 415.35998602183827, "timestamp": "2025-12-23T16:57:11.061744+00:00", "meta": {"OBJECT_NAME": "STARLINK-35996", "OBJECT_ID": "2025-278K", "EPOCH": "2025-12-23T06:00:00.999648", "MEAN_MOTION": 15.50540247, "ECCENTRICITY": 0.00017663, "INCLINATION": 42.9995, "RA_OF_ASC_NODE": 188.714, "ARG_OF_PERICENTER": 266.9556, "MEAN_ANOMALY": 250.1368, "EPHEMERIS_TYPE": 0, "CLASSIFICATION_TYPE": "U", "NORAD_CAT_ID": 66800, "ELEMENT_SET_NO": 999, "REV_AT_EPOCH": 443, "BSTAR": 0.00035100121, "MEAN_MOTION_DOT": 0.00020275, "MEAN_MOTION_DDOT": 0}, "tle": {"line1": "1 66800U 25278K   25357.25001157  .00020275  00000+0  35100-3 0  9994", "line2": "2 66800  42.9995 188.7140 0001766 266.9556 250.1368 15.50540247  4437"}}, "geometry": {"type": "Point", "coordinates": [11.648530419331605, -5.199770335863901]}}, {"type": "Feature", "properties": {"norad_id": 66801, "name": "STARLINK-36080", "group": "last-30-days", "lat": -11.63279752565698, "lon": 18.78245578210302, "alt_km": 415.59976944638765, "timestamp": "2025-12-23T16:57:11.061755+00:00", "meta": {"OBJECT_NAME": "STARLINK-36080", "OBJECT_ID": "2025-278L", "EPOCH": "2025-12-23T06:00:00.999648", "MEAN_MOTION": 15.50539249, "ECCENTRICITY": 0.00023241, "INCLINATION": 43, "RA_OF_ASC_NODE": 188.6891, "ARG_OF_PERICENTER": 260.9037, "MEAN_ANOMALY": 265.7539, "EPHEMERIS_TYPE": 0, "CLASSIFICATION_TYPE": "U", "NORAD_CAT_ID": 66801, "ELEMENT_SET_NO": 999, "REV_AT_EPOCH": 464, "BSTAR": 0.00051919342, "MEAN_MOTION_DOT": 0.00030192, "MEAN_MOTION_DDOT": 0}, "tle": {"line1": "1 66801U 25278L   25357.25001157  .00030192  00000+0  51919-3 0  9990", "line2": "2 66801  43.0000 188.6891 0002324 260.9037 265.7539 15.50539249  4643"}}, "geometry": {"type": "Point", "coordinates": [18.78245578210302, -11.63279752565698]}}, {"type": "Feature", "properties": {"norad_id": 66802, "name": "STARLINK-35604", "group": "last-30-days", "lat": -3.8925949772080797, "lon": 10.236541812757388, "alt_km": 415.0146666479868, "timestamp": "2025-12-23T16:57:11.061765+00:00", "meta": {"OBJECT_NAME": "STARLINK-35604", "OBJECT_ID": "2025-278M", "EPOCH": "2025-12-23T06:00:00.999648", "MEAN_MOTION": 15.50548631, "ECCENTRICITY": 0.000222, "INCLINATION": 42.9996, "RA_OF_ASC_NODE": 188.719, "ARG_OF_PERICENTER": 260.5968, "MEAN_ANOMALY": 254.5599, "EPHEMERIS_TYPE": 0, "CLASSIFICATION_TYPE": "U", "NORAD_CAT_ID": 66802, "ELEMENT_SET_NO": 999, "REV_AT_EPOCH": 464, "BSTAR": 0.0003979797, "MEAN_MOTION_DOT": 0.0002305, "MEAN_MOTION_DDOT": 0}, "tle": {"line1": "1 66802U 25278M   25357.25001157  .00023050  00000+0  39798-3 0  9997", "line2": "2 66802  42.9996 188.7190 0002220 260.5968 254.5599 15.50548631  4640"}}, "geometry": {"type": "Point", "coordinates": [10.236541812757388, -3.8925949772080797]}}, {"type": "Feature", "properties": {"norad_id": 66803, "name": "STARLINK-35565", "group": "last-30-days", "lat": -6.489432790568462, "lon": 13.050942228653465, "alt_km": 415.1382126091812, "timestamp": "2025-12-23T16:57:11.061777+00:00", "meta": {"OBJECT_NAME": "STARLINK-35565", "OBJECT_ID": "2025-278N", "EPOCH": "2025-12-23T06:00:00.999648", "MEAN_MOTION": 15.50578406, "ECCENTRICITY": 0.00022745, "INCLINATION": 42.9998, "RA_OF_ASC_NODE": 188.7094, "ARG_OF_PERICENTER": 254.9944, "MEAN_ANOMALY": 263.9843, "EPHEMERIS_TYPE": 0, "CLASSIFICATION_TYPE": "U", "NORAD_CAT_ID": 66803, "ELEMENT_SET_NO": 999, "REV_AT_EPOCH": 473, "BSTAR": -0.00058748111, "MEAN_MOTION_DOT": -0.00034656, "MEAN_MOTION_DDOT": 0}, "tle": {"line1": "1 66803U 25278N   25357.25001157 -.00034656  00000+0 -58748-3 0  9990", "line2": "2 66803  42.9998 188.7094 0002274 254.9944 263.9843 15.50578406  4735"}}, "geometry": {"type": "Point", "coordinates": [13.050942228653465, -6.489432790568462]}}, {"type": "Feature", "properties": {"norad_id": 66804, "name": "STARLINK-36038", "group": "last-30-days", "lat": -7.816471544169574, "lon": 14.505723897599397, "alt_km": 415.98227535673414, "timestamp": "2025-12-23T16:57:11.061789+00:00", "meta": {"OBJECT_NAME": "STARLINK-36038", "OBJECT_ID": "2025-278P", "EPOCH": "2025-12-23T06:00:00.999648", "MEAN_MOTION": 15.50522223, "ECCENTRICITY": 0.00017192, "INCLINATION": 42.9997, "RA_OF_ASC_NODE": 188.7041, "ARG_OF_PERICENTER": 284.6148, "MEAN_ANOMALY": 236.3696, "EPHEMERIS_TYPE": 0, "CLASSIFICATION_TYPE": "U", "NORAD_CAT_ID": 66804, "ELEMENT_SET_NO": 999, "REV_AT_EPOCH": 464, "BSTAR": 0.00047820886, "MEAN_MOTION_DOT": 0.00027756, "MEAN_MOTION_DDOT": 0}, "tle": {"line1": "1 66804U 25278P   25357.25001157  .00027756  00000+0  47821-3 0  9992", "line2": "2 66804  42.9997 188.7041 0001719 284.6148 236.3696 15.50522223  4642"}}, "geometry": {"type": "Point", "coordinates": [14.505723897599397, -7.816471544169574]}}, {"type": "Feature", "properties": {"norad_id": 66805, "name": "STARLINK-36049", "group": "last-30-days", "lat": -10.358995393881218, "lon": 17.336774106476803, "alt_km": 415.4192552286704, "timestamp": "2025-12-23T16:57:11.061800+00:00", "meta": {"OBJECT_NAME": "STARLINK-36049", "OBJECT_ID": "2025-278Q", "EPOCH": "2025-12-23T06:00:00.999648", "MEAN_MOTION": 15.5054204, "ECCENTRICITY": 0.0002337, "INCLINATION": 43, "RA_OF_ASC_NODE": 188.694, "ARG_OF_PERICENTER": 257.4659, "MEAN_ANOMALY": 267.2775, "EPHEMERIS_TYPE": 0, "CLASSIFICATION_TYPE": "U", "NORAD_CAT_ID": 66805, "ELEMENT_SET_NO": 999, "REV_AT_EPOCH": 464, "BSTAR": 0.00048075418, "MEAN_MOTION_DOT": 0.00027926, "MEAN_MOTION_DDOT": 0}, "tle": {"line1": "1 66805U 25278Q   25357.25001157  .00027926  00000+0  48075-3 0  9994", "line2": "2 66805  43.0000 188.6940 0002337 257.4659 267.2775 15.50542040  4649"}}, "geometry": {"type": "Point", "coordinates": [17.336774106476803, -10.358995393881218]}}, {"type": "Feature", "properties": {"norad_id": 66806, "name": "STARLINK-36069", "group": "last-30-days", "lat": -9.07247441006935, "lon": 15.896426711697263, "alt_km": 415.37306923901906, "timestamp": "2025-12-23T16:57:11.061810+00:00", "meta": {"OBJECT_NAME": "STARLINK-36069", "OBJECT_ID": "2025-278R", "EPOCH": "2025-12-23T06:00:00.999648", "MEAN_MOTION": 15.50540373, "ECCENTRICITY": 0.00023134, "INCLINATION": 42.9998, "RA_OF_ASC_NODE": 188.6994, "ARG_OF_PERICENTER": 259.0053, "MEAN_ANOMALY": 263.8198, "EPHEMERIS_TYPE": 0, "CLASSIFICATION_TYPE": "U", "NORAD_CAT_ID": 66806, "ELEMENT_SET_NO": 999, "REV_AT_EPOCH": 443, "BSTAR": 0.00050452854, "MEAN_MOTION_DOT": 0.00029328, "MEAN_MOTION_DDOT": 0}, "tle": {"line1": "1 66806U 25278R   25357.25001157  .00029328  00000+0  50453-3 0  9996", "line2": "2 66806  42.9998 188.6994 0002313 259.0053 263.8198 15.50540373  4438"}}, "geometry": {"type": "Point", "coordinates": [15.896426711697263, -9.07247441006935]}}, {"type": "Feature", "properties": {"norad_id": 66807, "name": "STARLINK-36000", "group": "last-30-days", "lat": -12.918746593679161, "lon": 20.265075495478897, "alt_km": 415.962987135762, "timestamp": "2025-12-23T16:57:11.061820+00:00", "meta": {"OBJECT_NAME": "STARLINK-36000", "OBJECT_ID": "2025-278S", "EPOCH": "2025-12-23T06:00:00.999648", "MEAN_MOTION": 15.505397, "ECCENTRICITY": 0.00016468, "INCLINATION": 42.9997, "RA_OF_ASC_NODE": 188.685, "ARG_OF_PERICENTER": 263.8806, "MEAN_ANOMALY": 264.719, "EPHEMERIS_TYPE": 0, "CLASSIFICATION_TYPE": "U", "NORAD_CAT_ID": 66807, "ELEMENT_SET_NO": 999, "REV_AT_EPOCH": 470, "BSTAR": 0.00031584142, "MEAN_MOTION_DOT": 0.00018204, "MEAN_MOTION_DDOT": 0}, "tle": {"line1": "1 66807U 25278S   25357.25001157  .00018204  00000+0  31584-3 0  9992", "line2": "2 66807  42.9997 188.6850 0001646 263.8806 264.7190 15.50539700  4700"}}, "geometry": {"type": "Point", "coordinates": [20.265075495478897, -12.918746593679161]}}, {"type": "Feature", "properties": {"norad_id": 66808, "name": "STARLINK-36071", "group": "last-30-days", "lat": -14.179477381943483, "lon": 21.7424864143483, "alt_km": 416.11645599476833, "timestamp": "2025-12-23T16:57:11.061830+00:00", "meta": {"OBJECT_NAME": "STARLINK-36071", "OBJECT_ID": "2025-278T", "EPOCH": "2025-12-23T06:00:00.999648", "MEAN_MOTION": 15.50540132, "ECCENTRICITY": 0.00016692, "INCLINATION": 42.9998, "RA_OF_ASC_NODE": 188.6804, "ARG_OF_PERICENTER": 267.9498, "MEAN_ANOMALY": 262.563, "EPHEMERIS_TYPE": 0, "CLASSIFICATION_TYPE": "U", "NORAD_CAT_ID": 66808, "ELEMENT_SET_NO": 999, "REV_AT_EPOCH": 464, "BSTAR": 0.00035857069, "MEAN_MOTION_DOT": 0.00020721, "MEAN_MOTION_DDOT": 0}, "tle": {"line1": "1 66808U 25278T   25357.25001157  .00020721  00000+0  35857-3 0  9997", "line2": "2 66808  42.9998 188.6804 0001669 267.9498 262.5630 15.50540132  4647"}}, "geometry": {"type": "Point", "coordinates": [21.7424864143483, -14.179477381943483]}}]}